{
    "type": "FeatureCollection",
    "features": [
        {
            "geometry": {
                "type": "Polygon",
                "coordinates": [
                    [
                        [
                            140.3681870736452,
                            -34.07263537267241
                        ],
                        [
                            140.4371683571168,
                            -34.932690841318895
                        ],
                        [
                            141.4881546712963,
                            -34.87221686728545
                        ],
                        [
                            141.4106396690369,
                            -34.012769998502456
                        ],
                        [
                            140.3681870736452,
                            -34.07263537267241
                        ]
                    ]
                ]
            },
            "type": "Feature",
            "properties": {
                "region_code": "x36y17",
                "ix": 36,
                "iy": 17,
                "utc_offset": 9
            }
        }
    ]
}